GECAM-A                 
1 47234U 20094A   26058.13989985  .00002379  00000+0  17329-3 0  9993
2 47234  28.9961  20.3521 0010700 243.6219 116.3280 15.00334340285149
STARLINK-4431           
1 53486U 22099X   26068.89985358 -.00000672  00000+0 -47761-4 0  9990
2 53486  97.6018 190.4109 0003635 169.3856 190.7446 15.01260520196018
